[{"OBJECT_NAME":"STARLINK-35272","OBJECT_ID":"2025-224T","EPOCH":"2026-03-22T22:03:53.495424","MEAN_MOTION":15.30180172,"ECCENTRICITY":8.745e-5,"INCLINATION":53.1574,"RA_OF_ASC_NODE":309.6196,"ARG_OF_PERICENTER":98.1804,"MEAN_ANOMALY":261.9296,"EPHEMERIS_TYPE":0,"CLASSIFICATION_TYPE":"U","NORAD_CAT_ID":65899,"ELEMENT_SET_NO":999,"REV_AT_EPOCH":2689,"BSTAR":0.0009351587,"MEAN_MOTION_DOT":0.00027423,"MEAN_MOTION_DDOT":0},{"OBJECT_NAME":"STARLINK-35264","OBJECT_ID":"2025-224U","EPOCH":"2026-03-22T21:59:19.954752","MEAN_MOTION":15.30184217,"ECCENTRICITY":0.00011443,"INCLINATION":53.1571,"RA_OF_ASC_NODE":309.5994,"ARG_OF_PERICENTER":79.0495,"MEAN_ANOMALY":281.0635,"EPHEMERIS_TYPE":0,"CLASSIFICATION_TYPE":"U","NORAD_CAT_ID":65900,"ELEMENT_SET_NO":999,"REV_AT_EPOCH":2689,"BSTAR":0.0011676416,"MEAN_MOTION_DOT":0.00034366,"MEAN_MOTION_DDOT":0},{"OBJECT_NAME":"STARLINK-35249","OBJECT_ID":"2025-224V","EPOCH":"2026-03-22T21:24:32.680224","MEAN_MOTION":15.30189361,"ECCENTRICITY":9.952e-5,"INCLINATION":53.1611,"RA_OF_ASC_NODE":310.1596,"ARG_OF_PERICENTER":86.7606,"MEAN_ANOMALY":273.3509,"EPHEMERIS_TYPE":0,"CLASSIFICATION_TYPE":"U","NORAD_CAT_ID":65901,"ELEMENT_SET_NO":999,"REV_AT_EPOCH":2687,"BSTAR":0.0009586752,"MEAN_MOTION_DOT":0.00028132,"MEAN_MOTION_DDOT":0},{"OBJECT_NAME":"STARLINK-35278","OBJECT_ID":"2025-224W","EPOCH":"2026-03-22T21:39:44.813664","MEAN_MOTION":15.30168882,"ECCENTRICITY":0.00011137,"INCLINATION":53.1596,"RA_OF_ASC_NODE":310.2243,"ARG_OF_PERICENTER":53.9406,"MEAN_ANOMALY":306.1698,"EPHEMERIS_TYPE":0,"CLASSIFICATION_TYPE":"U","NORAD_CAT_ID":65902,"ELEMENT_SET_NO":999,"REV_AT_EPOCH":2689,"BSTAR":0.0010869719,"MEAN_MOTION_DOT":0.00031941,"MEAN_MOTION_DDOT":0},{"OBJECT_NAME":"STARLINK-35210","OBJECT_ID":"2025-224X","EPOCH":"2026-03-22T21:53:23.767296","MEAN_MOTION":15.30186261,"ECCENTRICITY":0.00013035,"INCLINATION":53.1583,"RA_OF_ASC_NODE":310.2854,"ARG_OF_PERICENTER":97.3645,"MEAN_ANOMALY":262.7504,"EPHEMERIS_TYPE":0,"CLASSIFICATION_TYPE":"U","NORAD_CAT_ID":65903,"ELEMENT_SET_NO":999,"REV_AT_EPOCH":2687,"BSTAR":0.00072573245,"MEAN_MOTION_DOT":0.00021187,"MEAN_MOTION_DDOT":0},{"OBJECT_NAME":"STARLINK-35348","OBJECT_ID":"2025-224Y","EPOCH":"2026-03-22T22:11:29.203584","MEAN_MOTION":15.30192147,"ECCENTRICITY":7.872e-5,"INCLINATION":53.1569,"RA_OF_ASC_NODE":309.6516,"ARG_OF_PERICENTER":70.7866,"MEAN_ANOMALY":289.322,"EPHEMERIS_TYPE":0,"CLASSIFICATION_TYPE":"U","NORAD_CAT_ID":65904,"ELEMENT_SET_NO":999,"REV_AT_EPOCH":2685,"BSTAR":0.0010977431,"MEAN_MOTION_DOT":0.00032286,"MEAN_MOTION_DDOT":0},{"OBJECT_NAME":"STARLINK-35380","OBJECT_ID":"2025-224Z","EPOCH":"2026-03-22T22:44:55.134240","MEAN_MOTION":15.30190305,"ECCENTRICITY":0.00012408,"INCLINATION":53.1601,"RA_OF_ASC_NODE":309.7964,"ARG_OF_PERICENTER":95.9607,"MEAN_ANOMALY":264.1535,"EPHEMERIS_TYPE":0,"CLASSIFICATION_TYPE":"U","NORAD_CAT_ID":65905,"ELEMENT_SET_NO":999,"REV_AT_EPOCH":2685,"BSTAR":0.00070757966,"MEAN_MOTION_DOT":0.00020649,"MEAN_MOTION_DDOT":0},{"OBJECT_NAME":"STARLINK-35385","OBJECT_ID":"2025-224AA","EPOCH":"2026-03-22T20:52:37.331328","MEAN_MOTION":15.30167709,"ECCENTRICITY":0.00011473,"INCLINATION":53.1594,"RA_OF_ASC_NODE":310.0199,"ARG_OF_PERICENTER":68.8096,"MEAN_ANOMALY":291.3028,"EPHEMERIS_TYPE":0,"CLASSIFICATION_TYPE":"U","NORAD_CAT_ID":65906,"ELEMENT_SET_NO":999,"REV_AT_EPOCH":2687,"BSTAR":0.00096718338,"MEAN_MOTION_DOT":0.00028367,"MEAN_MOTION_DDOT":0},{"OBJECT_NAME":"STARLINK-35347","OBJECT_ID":"2025-224AB","EPOCH":"2026-03-22T22:17:33.953280","MEAN_MOTION":15.30192729,"ECCENTRICITY":0.00010933,"INCLINATION":53.1576,"RA_OF_ASC_NODE":309.6774,"ARG_OF_PERICENTER":76.8644,"MEAN_ANOMALY":283.2479,"EPHEMERIS_TYPE":0,"CLASSIFICATION_TYPE":"U","NORAD_CAT_ID":65907,"ELEMENT_SET_NO":999,"REV_AT_EPOCH":2688,"BSTAR":0.0010160525,"MEAN_MOTION_DOT":0.00029848,"MEAN_MOTION_DDOT":0},{"OBJECT_NAME":"STARLINK-35329","OBJECT_ID":"2025-224AC","EPOCH":"2026-03-22T22:35:48.055488","MEAN_MOTION":15.30198301,"ECCENTRICITY":0.00014301,"INCLINATION":53.1597,"RA_OF_ASC_NODE":309.7561,"ARG_OF_PERICENTER":102.3955,"MEAN_ANOMALY":257.7206,"EPHEMERIS_TYPE":0,"CLASSIFICATION_TYPE":"U","NORAD_CAT_ID":65908,"ELEMENT_SET_NO":999,"REV_AT_EPOCH":2689,"BSTAR":0.00074095525,"MEAN_MOTION_DOT":0.00021649,"MEAN_MOTION_DDOT":0},{"OBJECT_NAME":"STARLINK-35387","OBJECT_ID":"2025-224AD","EPOCH":"2026-03-22T21:47:20.436288","MEAN_MOTION":15.30188452,"ECCENTRICITY":0.00014432,"INCLINATION":53.1592,"RA_OF_ASC_NODE":310.2571,"ARG_OF_PERICENTER":82.1506,"MEAN_ANOMALY":277.9659,"EPHEMERIS_TYPE":0,"CLASSIFICATION_TYPE":"U","NORAD_CAT_ID":65909,"ELEMENT_SET_NO":999,"REV_AT_EPOCH":2684,"BSTAR":0.00088768377,"MEAN_MOTION_DOT":0.00026014,"MEAN_MOTION_DDOT":0},{"OBJECT_NAME":"STARLINK-35523","OBJECT_ID":"2025-225A","EPOCH":"2026-03-22T08:16:21.272160","MEAN_MOTION":15.30161367,"ECCENTRICITY":0.00012809,"INCLINATION":53.1581,"RA_OF_ASC_NODE":107.0408,"ARG_OF_PERICENTER":88.65,"MEAN_ANOMALY":271.4647,"EPHEMERIS_TYPE":0,"CLASSIFICATION_TYPE":"U","NORAD_CAT_ID":65910,"ELEMENT_SET_NO":999,"REV_AT_EPOCH":2634,"BSTAR":4.367673e-6,"MEAN_MOTION_DOT":-2.3e-6,"MEAN_MOTION_DDOT":0},{"OBJECT_NAME":"STARLINK-35160","OBJECT_ID":"2025-225B","EPOCH":"2026-03-22T11:42:41.320800","MEAN_MOTION":15.30159786,"ECCENTRICITY":9.5e-5,"INCLINATION":53.1575,"RA_OF_ASC_NODE":106.5125,"ARG_OF_PERICENTER":82.3189,"MEAN_ANOMALY":277.7919,"EPHEMERIS_TYPE":0,"CLASSIFICATION_TYPE":"U","NORAD_CAT_ID":65911,"ELEMENT_SET_NO":999,"REV_AT_EPOCH":2636,"BSTAR":0.0004367254,"MEAN_MOTION_DOT":0.00012581,"MEAN_MOTION_DDOT":0},{"OBJECT_NAME":"STARLINK-35508","OBJECT_ID":"2025-225C","EPOCH":"2026-03-22T11:29:01.654368","MEAN_MOTION":15.3016303,"ECCENTRICITY":0.0001291,"INCLINATION":53.158,"RA_OF_ASC_NODE":106.4536,"ARG_OF_PERICENTER":82.4503,"MEAN_ANOMALY":277.6644,"EPHEMERIS_TYPE":0,"CLASSIFICATION_TYPE":"U","NORAD_CAT_ID":65912,"ELEMENT_SET_NO":999,"REV_AT_EPOCH":2636,"BSTAR":0.00084896452,"MEAN_MOTION_DOT":0.0002484,"MEAN_MOTION_DDOT":0},{"OBJECT_NAME":"STARLINK-35472","OBJECT_ID":"2025-225D","EPOCH":"2026-03-22T19:10:11.098848","MEAN_MOTION":15.30179504,"ECCENTRICITY":0.00012761,"INCLINATION":53.1582,"RA_OF_ASC_NODE":104.8954,"ARG_OF_PERICENTER":85.9481,"MEAN_ANOMALY":274.1665,"EPHEMERIS_TYPE":0,"CLASSIFICATION_TYPE":"U","NORAD_CAT_ID":65913,"ELEMENT_SET_NO":999,"REV_AT_EPOCH":2641,"BSTAR":0.00029824974,"MEAN_MOTION_DOT":8.479e-5,"MEAN_MOTION_DDOT":0},{"OBJECT_NAME":"STARLINK-35524","OBJECT_ID":"2025-225E","EPOCH":"2026-03-22T18:10:55.481376","MEAN_MOTION":15.30168253,"ECCENTRICITY":9.99e-5,"INCLINATION":53.157,"RA_OF_ASC_NODE":104.6387,"ARG_OF_PERICENTER":65.7312,"MEAN_ANOMALY":294.3793,"EPHEMERIS_TYPE":0,"CLASSIFICATION_TYPE":"U","NORAD_CAT_ID":65914,"ELEMENT_SET_NO":999,"REV_AT_EPOCH":2641,"BSTAR":0.0010043291,"MEAN_MOTION_DOT":0.00029475,"MEAN_MOTION_DDOT":0}]
