STARLINK-35272          
1 65899U 25224T   26081.91936916  .00027423  00000+0  93516-3 0  9997
2 65899  53.1574 309.6196 0000874  98.1804 261.9296 15.30180172 26895
STARLINK-35264          
1 65900U 25224U   26081.91620318  .00034366  00000+0  11676-2 0  9996
2 65900  53.1571 309.5994 0001144  79.0495 281.0635 15.30184217 26899
STARLINK-35249          
1 65901U 25224V   26081.89204491  .00028132  00000+0  95868-3 0  9994
2 65901  53.1611 310.1596 0000995  86.7606 273.3509 15.30189361 26870
STARLINK-35278          
1 65902U 25224W   26081.90260201  .00031941  00000+0  10870-2 0  9999
2 65902  53.1596 310.2243 0001113  53.9406 306.1698 15.30168882 26891
STARLINK-35210          
1 65903U 25224X   26081.91208064  .00021187  00000+0  72573-3 0  9990
2 65903  53.1583 310.2854 0001303  97.3645 262.7504 15.30186261 26876
STARLINK-35348          
1 65904U 25224Y   26081.92464356  .00032286  00000+0  10977-2 0  9991
2 65904  53.1569 309.6516 0000787  70.7866 289.3220 15.30192147 26851
STARLINK-35380          
1 65905U 25224Z   26081.94786035  .00020649  00000+0  70758-3 0  9999
2 65905  53.1601 309.7964 0001240  95.9607 264.1535 15.30190305 26858
STARLINK-35385          
1 65906U 25224AA  26081.86987652  .00028367  00000+0  96718-3 0  9998
2 65906  53.1594 310.0199 0001147  68.8096 291.3028 15.30167709 26875
STARLINK-35347          
1 65907U 25224AB  26081.92886520  .00029848  00000+0  10161-2 0  9990
2 65907  53.1576 309.6774 0001093  76.8644 283.2479 15.30192729 26888
STARLINK-35329          
1 65908U 25224AC  26081.94152842  .00021649  00000+0  74096-3 0  9995
2 65908  53.1597 309.7561 0001430 102.3955 257.7206 15.30198301 26899
STARLINK-35387          
1 65909U 25224AD  26081.90787542  .00026014  00000+0  88768-3 0  9995
2 65909  53.1592 310.2571 0001443  82.1506 277.9659 15.30188452 26841
STARLINK-35523          
1 65910U 25225A   26081.34469065 -.00000230  00000+0  43677-5 0  9998
2 65910  53.1581 107.0408 0001280  88.6500 271.4647 15.30161367 26343
STARLINK-35160          
1 65911U 25225B   26081.48797825  .00012581  00000+0  43673-3 0  9997
2 65911  53.1575 106.5125 0000950  82.3189 277.7919 15.30159786 26369
STARLINK-35508          
1 65912U 25225C   26081.47849137  .00024840  00000+0  84896-3 0  9994
2 65912  53.1580 106.4536 0001291  82.4503 277.6644 15.30163030 26362
STARLINK-35472          
1 65913U 25225D   26081.79873957  .00008479  00000+0  29825-3 0  9998
2 65913  53.1582 104.8954 0001276  85.9481 274.1665 15.30179504 26411
STARLINK-35524          
1 65914U 25225E   26081.75758659  .00029475  00000+0  10043-2 0  9996
2 65914  53.1570 104.6387 0000999  65.7312 294.3793 15.30168253 26412
